OBJECT_NAME,OBJECT_ID,EPOCH,MEAN_MOTION,ECCENTRICITY,INCLINATION,RA_OF_ASC_NODE,ARG_OF_PERICENTER,MEAN_ANOMALY,EPHEMERIS_TYPE,CLASSIFICATION_TYPE,NORAD_CAT_ID,ELEMENT_SET_NO,REV_AT_EPOCH,BSTAR,MEAN_MOTION_DOT,MEAN_MOTION_DDOT
KUIPER-00513,2026-140G,2026-07-15T04:48:21.104928,15.38157939,.0007352,51.8792,263.2298,338.4092,21.6584,0,U,69598,999,554,.32939E-3,.12204E-3,0
KUIPER-00516,2026-140H,2026-07-15T05:00:18.057312,15.37595222,.0007035,51.8768,263.2760,355.6705,4.4220,0,U,69599,999,554,.31074E-3,.11276E-3,0
KUIPER-00517,2026-140J,2026-07-15T04:26:26.286144,15.38833871,.0012943,51.8765,263.1235,272.7699,87.1807,0,U,69600,999,554,.16624E-3,.6104E-4,0
KUIPER-00520,2026-140K,2026-07-14T13:25:39.099648,15.37636953,.000685,51.8804,266.4353,353.5232,6.5665,0,U,69601,999,544,.21391E-3,.7645E-4,0
KUIPER-00522,2026-140L,2026-07-14T09:39:27.179424,15.38654927,.00135335,51.8766,266.8758,262.0154,97.9298,0,U,69602,999,542,.58783788E-3,.22536E-3,0
KUIPER-00528,2026-140M,2026-07-14T13:29:25.971360,15.37486448,.0005814,51.8773,266.4415,0.1790,359.9198,0,U,69603,999,544,.21453E-3,.7629E-4,0
KUIPER-00532,2026-140N,2026-07-15T05:21:41.631264,15.36562401,.0005551,51.8781,263.3701,36.4166,323.7197,0,U,69604,999,554,.31555E-3,.11068E-3,0
KUIPER-00533,2026-140P,2026-07-14T13:07:06.575232,15.38270266,.0008033,51.8782,266.3406,324.8783,35.1674,0,U,69605,999,544,.45335E-3,.17024E-3,0
KUIPER-00534,2026-140Q,2026-07-15T04:14:27.220416,15.38734854,.0012697,51.8811,263.0796,268.1117,91.8416,0,U,69606,999,554,.53056E-3,.20341E-3,0
KUIPER-00537,2026-140R,2026-07-15T04:22:44.481792,15.34156003,.0010198,51.8808,263.8486,57.0322,303.1642,0,U,69607,999,553,.41247E-3,.13506E-3,0
KUIPER-00538,2026-140S,2026-07-14T13:22:07.967424,15.37720478,.0006672,51.8800,266.4163,340.5884,19.4848,0,U,69608,999,544,.21793E-3,.7818E-4,0
KUIPER-00540,2026-140T,2026-07-15T05:15:09.909216,15.36966584,.000664,51.8808,263.3520,24.4042,335.7258,0,U,69609,999,554,.29142E-3,.1033E-3,0
KUIPER-00541,2026-140U,2026-07-14T13:06:39.945024,15.38428649,.0007543,51.8805,266.3511,318.5864,41.4551,0,U,69610,999,544,-.19967E-3,-.8088E-4,0
KUIPER-00542,2026-140V,2026-07-15T04:40:22.898208,15.38295487,.0006969,51.8780,263.1882,307.3261,52.7090,0,U,69611,999,554,.46935E-3,.17651E-3,0
KUIPER-00543,2026-140W,2026-07-14T12:11:42.457056,15.36830922,.00081602,51.8792,266.8269,32.6543,327.4947,0,U,69612,999,543,.31527684E-3,.11162E-3,0
KUIPER-00544,2026-140X,2026-07-15T04:46:49.869120,15.38181292,.0006761,51.8786,263.2162,320.6718,39.3777,0,U,69613,999,554,.38361E-3,.14293E-3,0
KUIPER-00546,2026-140Y,2026-07-14T17:20:46.426848,15.38166665,.00143371,51.8805,265.2809,257.3045,102.6340,0,U,69614,999,547,-.418374E-2,-.157507E-2,0
KUIPER-00547,2026-140Z,2026-07-14T11:29:07.609056,15.37917453,.00109141,51.8805,266.6446,287.1660,72.8132,0,U,69615,999,543,.43980854E-3,.16324E-3,0
KUIPER-00549,2026-140AA,2026-07-15T05:07:51.817152,15.37338802,.0007935,51.8783,263.3105,16.4575,343.6668,0,U,69616,999,554,.36275E-3,.13123E-3,0
KUIPER-00550,2026-140AB,2026-07-15T00:00:02.000160,15.32072068,.0007643,51.8786,264.8862,61.6982,287.4180,0,U,69617,999,475,.12193E-2,.38172E-3,0
KUIPER-00551,2026-140AC,2026-07-14T11:18:23.593824,15.38237315,.0012174,51.8780,266.5873,275.8264,84.1335,0,U,69618,999,543,.3516E-3,.13109E-3,0
KUIPER-00554,2026-140AD,2026-07-14T13:00:04.671072,15.37977697,.0011174,51.8787,266.3099,288.8404,71.1371,0,U,69619,999,544,.37084E-3,.13725E-3,0
KUIPER-00555,2026-140AE,2026-07-15T04:00:03.000096,15.37950920,.0011346,51.8813,263.2641,278.5337,318.8284,0,U,69620,999,500,.97529E-3,.36831E-3,0
KUIPER-00556,2026-140AF,2026-07-14T12:54:44.392320,15.38323989,.0011952,51.8801,266.2922,265.1671,94.7952,0,U,69621,999,544,.40298E-3,.15129E-3,0
KUIPER-00557,2026-140AG,2026-07-14T11:34:39.392832,15.37521058,.00098691,51.8801,266.6669,297.9736,62.0251,0,U,69622,999,543,.26028495E-3,.9361E-4,0
KUIPER-00560,2026-140AH,2026-07-15T04:00:03.000096,15.36989056,.0009189,51.8782,263.2463,310.0967,291.9563,0,U,69623,999,511,.90229E-3,.3295E-3,0
KUIPER-00561,2026-140AJ,2026-07-14T16:05:17.179872,15.38721602,.00081272,51.8811,265.6836,304.5903,55.4318,0,U,69624,999,546,.31506093E-3,.11879E-3,0
KUIPER-00564,2026-140AK,2026-07-14T13:03:44.368128,15.37196641,.0009447,51.8801,266.3339,302.1244,57.8825,0,U,69625,999,544,.40315E-3,.14569E-3,0
KUIPER-00567,2026-140AL,2026-07-14T11:18:23.588640,15.38238816,.00121887,51.8779,266.5872,275.8734,84.0864,0,U,69626,999,543,.3847857E-3,.14387E-3,0
KUIPER-00573,2026-140AM,2026-07-15T04:49:43.900320,15.37481731,.0009339,51.8773,263.2289,285.9826,74.0131,0,U,69627,999,554,.3631E-3,.13203E-3,0
